ONEWEB-0228             
1 48780U 21045P   24086.48031585 -.00000012  00000+0 -66225-4 0  9992
2 48780  87.8983  60.9105 0001856  80.2491 279.8849 13.15548667138608
